start=new Date('2022-06-21T00:00:00.000Z').valueOf();
sats=[{"INCLINATION":"53.0538","RCS_SIZE":"LARGE","PERIOD":"95.592","ELEMENT_SET_NO":"999","TIME_SYSTEM":"UTC","ARG_OF_PERICENTER":"80.6720","DECAY_DATE":null,"BSTAR":"0.00015475000000","COUNTRY_CODE":"US","REF_FRAME":"TEME","TLE_LINE1":"1 44968U 20001BG  22171.70539693  .00002024  00000-0  15475-3 0  9992","REV_AT_EPOCH":"13573","MEAN_MOTION_DOT":"0.00002024","OBJECT_NAME":"STARLINK-1090","MEAN_ANOMALY":"279.4424","ECCENTRICITY":"0.00013680","CLASSIFICATION_TYPE":"U","OBJECT_TYPE":"PAYLOAD","EPHEMERIS_TYPE":"0","MEAN_MOTION":"15.06402179","FILE":"3498404","SEMIMAJOR_AXIS":"6925.342","GP_ID":"206511329","OBJECT_ID":"2020-001BG","APOAPSIS":"548.154","PERIAPSIS":"546.259","TLE_LINE2":"2 44968  53.0538 282.8550 0001368  80.6720 279.4424 15.06402179135734","CENTER_NAME":"EARTH","SITE":"AFETR","EPOCH":"2022-06-20T16:55:46.294752","MEAN_ELEMENT_THEORY":"SGP4","LAUNCH_DATE":"2020-01-07","NORAD_CAT_ID":"44968","RA_OF_ASC_NODE":"282.8550","MEAN_MOTION_DDOT":"0.0000000000000"},{"MEAN_MOTION_DOT":"0.00001517","OBJECT_NAME":"STARLINK-1092","REV_AT_EPOCH":"13572","ECCENTRICITY":"0.00013450","MEAN_ANOMALY":"274.8426","CLASSIFICATION_TYPE":"U","DECAY_DATE":null,"TIME_SYSTEM":"UTC","ARG_OF_PERICENTER":"85.2717","PERIOD":"95.592","ELEMENT_SET_NO":"999","INCLINATION":"53.0548","RCS_SIZE":"LARGE","TLE_LINE1":"1 44969U 20001BH  22171.69802598  .00001517  00000-0  12074-3 0  9996","REF_FRAME":"TEME","BSTAR":"0.00012074000000","COUNTRY_CODE":"US","EPOCH":"2022-06-20T16:45:09.444672","MEAN_ELEMENT_THEORY":"SGP4","MEAN_MOTION_DDOT":"0.0000000000000","NORAD_CAT_ID":"44969","RA_OF_ASC_NODE":"282.8883","LAUNCH_DATE":"2020-01-07","MEAN_MOTION":"15.06401003","FILE":"3498404","OBJECT_TYPE":"PAYLOAD","EPHEMERIS_TYPE":"0","PERIAPSIS":"546.279","SITE":"AFETR","TLE_LINE2":"2 44969  53.0548 282.8883 0001345  85.2717 274.8426 15.06401003135722","CENTER_NAME":"EARTH","APOAPSIS":"548.142","SEMIMAJOR_AXIS":"6925.345","GP_ID":"206510093","OBJECT_ID":"2020-001BH"},{"MEAN_MOTION_DOT":"0.00001277","OBJECT_NAME":"STARLINK-1093","REV_AT_EPOCH":"13573","MEAN_ANOMALY":"270.1398","ECCENTRICITY":"0.00013330","CLASSIFICATION_TYPE":"U","PERIOD":"95.592","ELEMENT_SET_NO":"999","INCLINATION":"53.0537","RCS_SIZE":"LARGE","DECAY_DATE":null,"TIME_SYSTEM":"UTC","ARG_OF_PERICENTER":"89.9744","REF_FRAME":"TEME","BSTAR":"0.00010462000000","COUNTRY_CODE":"US","TLE_LINE1":"1 44970U 20001BJ  22171.80859274  .00001277  00000-0  10462-3 0  9996","EPOCH":"2022-06-20T19:24:22.412736","MEAN_ELEMENT_THEORY":"SGP4","LAUNCH_DATE":"2020-01-07","MEAN_MOTION_DDOT":"0.0000000000000","NORAD_CAT_ID":"44970","RA_OF_ASC_NODE":"282.3791","OBJECT_TYPE":"PAYLOAD","EPHEMERIS_TYPE":"0","FILE":"3498404","MEAN_MOTION":"15.06403224","APOAPSIS":"548.127","SEMIMAJOR_AXIS":"6925.339","GP_ID":"206510342","OBJECT_ID":"2020-001BJ","PERIAPSIS":"546.281","SITE":"AFETR","TLE_LINE2":"2 44970  53.0537 282.3791 0001333  89.9744 270.1398 15.06403224135738","CENTER_NAME":"EARTH"},{"EPOCH":"2022-06-20T17:06:21.993120","MEAN_ELEMENT_THEORY":"SGP4","LAUNCH_DATE":"2020-01-07","MEAN_MOTION_DDOT":"0.0000000000000","NORAD_CAT_ID":"44972","RA_OF_ASC_NODE":"282.8256","OBJECT_TYPE":"PAYLOAD","EPHEMERIS_TYPE":"0","FILE":"3498404","MEAN_MOTION":"15.06407544","APOAPSIS":"548.070","SEMIMAJOR_AXIS":"6925.325","GP_ID":"206511586","OBJECT_ID":"2020-001BL","PERIAPSIS":"546.311","SITE":"AFETR","TLE_LINE2":"2 44972  53.0556 282.8256 0001270  78.2903 281.8229 15.06407544135731","CENTER_NAME":"EARTH","MEAN_MOTION_DOT":"0.00000593","OBJECT_NAME":"STARLINK-1107","REV_AT_EPOCH":"13573","ECCENTRICITY":"0.00012700","MEAN_ANOMALY":"281.8229","CLASSIFICATION_TYPE":"U","PERIOD":"95.592","ELEMENT_SET_NO":"999","INCLINATION":"53.0556","RCS_SIZE":"LARGE","DECAY_DATE":null,"TIME_SYSTEM":"UTC","ARG_OF_PERICENTER":"78.2903","REF_FRAME":"TEME","BSTAR":"0.00005869900000","COUNTRY_CODE":"US","TLE_LINE1":"1 44972U 20001BL  22171.71275455  .00000593  00000-0  58699-4 0  9996"},{"SITE":"AFETR","TLE_LINE2":"2 44973  53.0534 282.9174 0001496  71.2532 288.8619 15.06390013135720","CENTER_NAME":"EARTH","PERIAPSIS":"546.208","OBJECT_ID":"2020-001BM","GP_ID":"206511830","SEMIMAJOR_AXIS":"6925.379","APOAPSIS":"548.280","FILE":"3498404","MEAN_MOTION":"15.06390013","EPHEMERIS_TYPE":"0","OBJECT_TYPE":"PAYLOAD","NORAD_CAT_ID":"44973","RA_OF_ASC_NODE":"282.9174","MEAN_MOTION_DDOT":"0.0000000000000","LAUNCH_DATE":"2020-01-07","EPOCH":"2022-06-20T16:34:32.436480","MEAN_ELEMENT_THEORY":"SGP4","TLE_LINE1":"1 44973U 20001BM  22171.69065320 -.00000519  00000-0 -15943-4 0  9997","COUNTRY_CODE":"US","BSTAR":"-0.00001594300000","REF_FRAME":"TEME","ARG_OF_PERICENTER":"71.2532","TIME_SYSTEM":"UTC","DECAY_DATE":null,"RCS_SIZE":"LARGE","INCLINATION":"53.0534","ELEMENT_SET_NO":"999","PERIOD":"95.593","CLASSIFICATION_TYPE":"U","MEAN_ANOMALY":"288.8619","ECCENTRICITY":"0.00014960","REV_AT_EPOCH":"13572","OBJECT_NAME":"STARLINK-1115","MEAN_MOTION_DOT":"-0.00000519"},{"TLE_LINE2":"2 45044  53.0535 243.0368 0001760  56.5690 303.5467 15.06397514132051","SITE":"AFETR","CENTER_NAME":"EARTH","PERIAPSIS":"546.002","APOAPSIS":"548.440","OBJECT_ID":"2020-006A","GP_ID":"206511336","SEMIMAJOR_AXIS":"6925.356","MEAN_MOTION":"15.06397514","FILE":"3498404","EPHEMERIS_TYPE":"0","OBJECT_TYPE":"PAYLOAD","MEAN_MOTION_DDOT":"0.0000000000000","NORAD_CAT_ID":"45044","RA_OF_ASC_NODE":"243.0368","LAUNCH_DATE":"2020-01-29","EPOCH":"2022-06-20T15:57:22.459392","MEAN_ELEMENT_THEORY":"SGP4","TLE_LINE1":"1 45044U 20006A   22171.66484328  .00000037  00000-0  21401-4 0  9991","REF_FRAME":"TEME","COUNTRY_CODE":"US","BSTAR":"0.00002140100000","DECAY_DATE":null,"ARG_OF_PERICENTER":"56.5690","TIME_SYSTEM":"UTC","ELEMENT_SET_NO":"999","PERIOD":"95.592","RCS_SIZE":"LARGE","INCLINATION":"53.0535","CLASSIFICATION_TYPE":"U","ECCENTRICITY":"0.00017600","MEAN_ANOMALY":"303.5467","OBJECT_NAME":"STARLINK-1132","MEAN_MOTION_DOT":"0.00000037","REV_AT_EPOCH":"13205"},{"NORAD_CAT_ID":"45045","RA_OF_ASC_NODE":"263.6719","MEAN_MOTION_DDOT":"0.0000000000000","LAUNCH_DATE":"2020-01-29","EPOCH":"2022-06-20T12:26:21.140736","MEAN_ELEMENT_THEORY":"SGP4","TLE_LINE2":"2 45045  53.0551 263.6719 0001520  43.1530 316.9578 15.06397735131759","SITE":"AFETR","CENTER_NAME":"EARTH","PERIAPSIS":"546.168","OBJECT_ID":"2020-006B","SEMIMAJOR_AXIS":"6925.355","GP_ID":"206477275","APOAPSIS":"548.273","FILE":"3498071","MEAN_MOTION":"15.06397735","EPHEMERIS_TYPE":"0","OBJECT_TYPE":"PAYLOAD","CLASSIFICATION_TYPE":"U","ECCENTRICITY":"0.00015200","MEAN_ANOMALY":"316.9578","REV_AT_EPOCH":"13175","OBJECT_NAME":"STARLINK-1120","MEAN_MOTION_DOT":"0.00000914","TLE_LINE1":"1 45045U 20006B   22171.51830024  .00000914  00000-0  80272-4 0  9999","COUNTRY_CODE":"US","BSTAR":"0.00008027200000","REF_FRAME":"TEME","ARG_OF_PERICENTER":"43.1530","TIME_SYSTEM":"UTC","DECAY_DATE":null,"RCS_SIZE":"LARGE","INCLINATION":"53.0551","ELEMENT_SET_NO":"999","PERIOD":"95.592"},{"REF_FRAME":"TEME","COUNTRY_CODE":"US","BSTAR":"0.00089891000000","TLE_LINE1":"1 45046U 20006C   22171.66018649  .00016767  00000-0  89891-3 0  9995","ELEMENT_SET_NO":"999","PERIOD":"95.043","RCS_SIZE":"LARGE","INCLINATION":"52.9946","DECAY_DATE":null,"ARG_OF_PERICENTER":"347.9215","TIME_SYSTEM":"UTC","CLASSIFICATION_TYPE":"U","ECCENTRICITY":"0.00011270","MEAN_ANOMALY":"12.1750","OBJECT_NAME":"STARLINK-1129","MEAN_MOTION_DOT":"0.00016767","REV_AT_EPOCH":"13190","APOAPSIS":"521.441","OBJECT_ID":"2020-006C","SEMIMAJOR_AXIS":"6898.799","GP_ID":"206510349","TLE_LINE2":"2 45046  52.9946 250.8352 0001127 347.9215  12.1750 15.15104440131908","SITE":"AFETR","CENTER_NAME":"EARTH","PERIAPSIS":"519.886","EPHEMERIS_TYPE":"0","OBJECT_TYPE":"PAYLOAD","MEAN_MOTION":"15.15104440","FILE":"3498404","LAUNCH_DATE":"2020-01-29","MEAN_MOTION_DDOT":"0.0000000000000","NORAD_CAT_ID":"45046","RA_OF_ASC_NODE":"250.8352","EPOCH":"2022-06-20T15:50:40.112736","MEAN_ELEMENT_THEORY":"SGP4"},{"NORAD_CAT_ID":"45047","RA_OF_ASC_NODE":"263.0770","MEAN_MOTION_DDOT":"0.0000000000000","LAUNCH_DATE":"2020-01-29","EPOCH":"2022-06-20T15:44:06.396576","MEAN_ELEMENT_THEORY":"SGP4","SITE":"AFETR","TLE_LINE2":"2 45047  53.0548 263.0770 0001508  63.2459 296.8684 15.06396748131776","CENTER_NAME":"EARTH","PERIAPSIS":"546.179","OBJECT_ID":"2020-006D","GP_ID":"206511593","SEMIMAJOR_AXIS":"6925.359","APOAPSIS":"548.268","FILE":"3498404","MEAN_MOTION":"15.06396748","EPHEMERIS_TYPE":"0","OBJECT_TYPE":"PAYLOAD","CLASSIFICATION_TYPE":"U","MEAN_ANOMALY":"296.8684","ECCENTRICITY":"0.00015080","REV_AT_EPOCH":"13177","OBJECT_NAME":"STARLINK-1131","MEAN_MOTION_DOT":"0.00000313","TLE_LINE1":"1 45047U 20006D   22171.65562959  .00000313  00000-0  39880-4 0  9997","COUNTRY_CODE":"US","BSTAR":"0.00003988000000","REF_FRAME":"TEME","ARG_OF_PERICENTER":"63.2459","TIME_SYSTEM":"UTC","DECAY_DATE":null,"RCS_SIZE":"LARGE","INCLINATION":"53.0548","ELEMENT_SET_NO":"999","PERIOD":"95.592"},{"MEAN_ELEMENT_THEORY":"SGP4","EPOCH":"2022-06-20T15:54:43.399584","LAUNCH_DATE":"2020-01-29","NORAD_CAT_ID":"45048","RA_OF_ASC_NODE":"263.0269","MEAN_MOTION_DDOT":"0.0000000000000","OBJECT_TYPE":"PAYLOAD","EPHEMERIS_TYPE":"0","FILE":"3498404","MEAN_MOTION":"15.06396928","GP_ID":"206511837","SEMIMAJOR_AXIS":"6925.358","OBJECT_ID":"2020-006E","APOAPSIS":"548.089","PERIAPSIS":"546.357","SITE":"AFETR","TLE_LINE2":"2 45048  53.0544 263.0269 0001251  85.7323 274.3809 15.06396928131770","CENTER_NAME":"EARTH","REV_AT_EPOCH":"13177","MEAN_MOTION_DOT":"0.00001365","OBJECT_NAME":"STARLINK-1134","MEAN_ANOMALY":"274.3809","ECCENTRICITY":"0.00012510","CLASSIFICATION_TYPE":"U","INCLINATION":"53.0544","RCS_SIZE":"LARGE","PERIOD":"95.592","ELEMENT_SET_NO":"999","TIME_SYSTEM":"UTC","ARG_OF_PERICENTER":"85.7323","DECAY_DATE":null,"BSTAR":"0.00011055000000","COUNTRY_CODE":"US","REF_FRAME":"TEME","TLE_LINE1":"1 45048U 20006E   22171.66300231  .00001365  00000-0  11055-3 0  9993"}];
